ONEWEB-0291             
1 49081U 21075G   26188.43823588 -.00000014  00000+0 -70143-4 0  9998
2 49081  87.9139   1.8327 0002211  87.2352 272.9033 13.17646449236276
ONEWEB-0293             
1 49082U 21075H   26188.46354540  .00000043  00000+0  76477-4 0  9995
2 49082  87.9139   1.8310 0002018  93.3947 266.7415 13.17649625236300
ONEWEB-0294             
1 49083U 21075J   26188.38086077 -.00000226  00000+0 -66379-3 0  9998
2 49083  87.8962 346.6436 0002138  99.3384 260.7986 13.12441896237221
ONEWEB-0295             
1 49084U 21075K   26188.46270742  .00000046  00000+0  84091-4 0  9992
2 49084  87.9138   1.8350 0002097  84.8985 275.2386 13.17649494236260
ONEWEB-0296             
1 49085U 21075L   26188.43677666  .00000380  00000+0  10218-2 0  9995
2 49085  87.8969 346.6406 0002088  86.2577 273.8791 13.12442119237239
ONEWEB-0297             
1 49086U 21075M   26187.93359835 -.00000366  00000+0 -10516-2 0  9992
2 49086  87.8950 346.7489 0001895  91.1986 268.9360 13.12442807237776
ONEWEB-0298             
1 49087U 21075N   26188.46707680  .00000045  00000+0  83425-4 0  9990
2 49087  87.9139   1.8326 0001782  88.3215 271.8120 13.17648504236294
ONEWEB-0299             
1 49088U 21075P   26188.46860367  .00000053  00000+0  10379-3 0  9999
2 49088  87.9150   1.8141 0001911  85.8790 274.2560 13.17647313236277
ONEWEB-0300             
1 49089U 21075Q   26188.38339815 -.00000293  00000+0 -85026-3 0  9999
2 49089  87.8964 346.6407 0001509  88.2868 271.8433 13.12441656237855
ONEWEB-0301             
1 49090U 21075R   26188.36730881  .00000178  00000+0  46021-3 0  9999
2 49090  87.8961 346.6418 0001493  92.5441 267.5858 13.12441933237214
ONEWEB-0302             
1 49091U 21075S   26188.42999580  .00000443  00000+0  11951-2 0  9998
2 49091  87.8963 346.6420 0002151  95.9543 264.1831 13.12441550237200
ONEWEB-0304             
1 49092U 21075T   26188.44328858 -.00000199  00000+0 -54637-3 0  9994
2 49092  87.9138   1.8400 0001960  86.8731 273.2625 13.17648198236246
ONEWEB-0305             
1 49093U 21075U   26188.43654001 -.00000072  00000+0 -21939-3 0  9995
2 49093  87.9145   1.8271 0002077  80.8390 279.2977 13.17649927236276
ONEWEB-0308             
1 49094U 21075V   26188.42321684  .00000348  00000+0  93252-3 0  9994
2 49094  87.8962 346.6352 0001836  93.1142 267.0197 13.12442601237216
ONEWEB-0309             
1 49095U 21075W   26188.43992304 -.00000011  00000+0 -61161-4 0  9993
2 49095  87.9138   1.8332 0002332  96.1075 264.0322 13.17649469236246
ONEWEB-0310             
1 49096U 21075X   26188.43846670  .00000384  00000+0  10320-2 0  9998
2 49096  87.8954 346.6520 0001841  94.7083 265.4256 13.12442137237844
