{"fetched_at":"2026-07-08T07:03:34.892Z","source":"https://celestrak.org/NORAD/elements/gp.php?GROUP=oneweb&FORMAT=JSON","constellation":"oneweb","records":[{"OBJECT_NAME":"ONEWEB-0291","OBJECT_ID":"2021-075G","EPOCH":"2026-07-07T10:31:03.580032","CLASSIFICATION_TYPE":"U","MEAN_MOTION":13.17646449,"ECCENTRICITY":0.00022115,"INCLINATION":87.9139,"RA_OF_ASC_NODE":1.8327,"ARG_OF_PERICENTER":87.2352,"MEAN_ANOMALY":272.9033,"EPHEMERIS_TYPE":0,"NORAD_CAT_ID":49081,"ELEMENT_SET_NO":999,"REV_AT_EPOCH":23627,"BSTAR":-0.000070143321,"MEAN_MOTION_DOT":-1.4e-7,"MEAN_MOTION_DDOT":0},{"OBJECT_NAME":"ONEWEB-0293","OBJECT_ID":"2021-075H","EPOCH":"2026-07-07T11:07:30.322560","CLASSIFICATION_TYPE":"U","MEAN_MOTION":13.17649625,"ECCENTRICITY":0.00020187,"INCLINATION":87.9139,"RA_OF_ASC_NODE":1.831,"ARG_OF_PERICENTER":93.3947,"MEAN_ANOMALY":266.7415,"EPHEMERIS_TYPE":0,"NORAD_CAT_ID":49082,"ELEMENT_SET_NO":999,"REV_AT_EPOCH":23630,"BSTAR":0.000076477271,"MEAN_MOTION_DOT":4.3e-7,"MEAN_MOTION_DDOT":0},{"OBJECT_NAME":"ONEWEB-0294","OBJECT_ID":"2021-075J","EPOCH":"2026-07-07T09:08:26.370528","CLASSIFICATION_TYPE":"U","MEAN_MOTION":13.12441896,"ECCENTRICITY":0.00021385,"INCLINATION":87.8962,"RA_OF_ASC_NODE":346.6436,"ARG_OF_PERICENTER":99.3384,"MEAN_ANOMALY":260.7986,"EPHEMERIS_TYPE":0,"NORAD_CAT_ID":49083,"ELEMENT_SET_NO":999,"REV_AT_EPOCH":23722,"BSTAR":-0.00066379251,"MEAN_MOTION_DOT":-0.00000226,"MEAN_MOTION_DDOT":0},{"OBJECT_NAME":"ONEWEB-0295","OBJECT_ID":"2021-075K","EPOCH":"2026-07-07T11:06:17.921088","CLASSIFICATION_TYPE":"U","MEAN_MOTION":13.17649494,"ECCENTRICITY":0.00020972,"INCLINATION":87.9138,"RA_OF_ASC_NODE":1.835,"ARG_OF_PERICENTER":84.8985,"MEAN_ANOMALY":275.2386,"EPHEMERIS_TYPE":0,"NORAD_CAT_ID":49084,"ELEMENT_SET_NO":999,"REV_AT_EPOCH":23626,"BSTAR":0.00008409067,"MEAN_MOTION_DOT":4.6e-7,"MEAN_MOTION_DDOT":0},{"OBJECT_NAME":"ONEWEB-0296","OBJECT_ID":"2021-075L","EPOCH":"2026-07-07T10:28:57.503424","CLASSIFICATION_TYPE":"U","MEAN_MOTION":13.12442119,"ECCENTRICITY":0.00020889,"INCLINATION":87.8969,"RA_OF_ASC_NODE":346.6406,"ARG_OF_PERICENTER":86.2577,"MEAN_ANOMALY":273.8791,"EPHEMERIS_TYPE":0,"NORAD_CAT_ID":49085,"ELEMENT_SET_NO":999,"REV_AT_EPOCH":23723,"BSTAR":0.0010217774,"MEAN_MOTION_DOT":0.0000038,"MEAN_MOTION_DDOT":0},{"OBJECT_NAME":"ONEWEB-0297","OBJECT_ID":"2021-075M","EPOCH":"2026-07-06T22:24:22.897440","CLASSIFICATION_TYPE":"U","MEAN_MOTION":13.12442807,"ECCENTRICITY":0.00018955,"INCLINATION":87.895,"RA_OF_ASC_NODE":346.7489,"ARG_OF_PERICENTER":91.1986,"MEAN_ANOMALY":268.936,"EPHEMERIS_TYPE":0,"NORAD_CAT_ID":49086,"ELEMENT_SET_NO":999,"REV_AT_EPOCH":23777,"BSTAR":-0.0010516171,"MEAN_MOTION_DOT":-0.00000366,"MEAN_MOTION_DDOT":0},{"OBJECT_NAME":"ONEWEB-0298","OBJECT_ID":"2021-075N","EPOCH":"2026-07-07T11:12:35.435520","CLASSIFICATION_TYPE":"U","MEAN_MOTION":13.17648504,"ECCENTRICITY":0.00017823,"INCLINATION":87.9139,"RA_OF_ASC_NODE":1.8326,"ARG_OF_PERICENTER":88.3215,"MEAN_ANOMALY":271.812,"EPHEMERIS_TYPE":0,"NORAD_CAT_ID":49087,"ELEMENT_SET_NO":999,"REV_AT_EPOCH":23629,"BSTAR":0.000083425157,"MEAN_MOTION_DOT":4.5e-7,"MEAN_MOTION_DDOT":0},{"OBJECT_NAME":"ONEWEB-0299","OBJECT_ID":"2021-075P","EPOCH":"2026-07-07T11:14:47.357088","CLASSIFICATION_TYPE":"U","MEAN_MOTION":13.17647313,"ECCENTRICITY":0.00019115,"INCLINATION":87.915,"RA_OF_ASC_NODE":1.8141,"ARG_OF_PERICENTER":85.879,"MEAN_ANOMALY":274.256,"EPHEMERIS_TYPE":0,"NORAD_CAT_ID":49088,"ELEMENT_SET_NO":999,"REV_AT_EPOCH":23627,"BSTAR":0.00010379132,"MEAN_MOTION_DOT":5.3e-7,"MEAN_MOTION_DDOT":0},{"OBJECT_NAME":"ONEWEB-0300","OBJECT_ID":"2021-075Q","EPOCH":"2026-07-07T09:12:05.600160","CLASSIFICATION_TYPE":"U","MEAN_MOTION":13.12441656,"ECCENTRICITY":0.00015097,"INCLINATION":87.8964,"RA_OF_ASC_NODE":346.6407,"ARG_OF_PERICENTER":88.2868,"MEAN_ANOMALY":271.8433,"EPHEMERIS_TYPE":0,"NORAD_CAT_ID":49089,"ELEMENT_SET_NO":999,"REV_AT_EPOCH":23785,"BSTAR":-0.00085025857,"MEAN_MOTION_DOT":-0.00000293,"MEAN_MOTION_DDOT":0},{"OBJECT_NAME":"ONEWEB-0301","OBJECT_ID":"2021-075R","EPOCH":"2026-07-07T08:48:55.481184","CLASSIFICATION_TYPE":"U","MEAN_MOTION":13.12441933,"ECCENTRICITY":0.00014933,"INCLINATION":87.8961,"RA_OF_ASC_NODE":346.6418,"ARG_OF_PERICENTER":92.5441,"MEAN_ANOMALY":267.5858,"EPHEMERIS_TYPE":0,"NORAD_CAT_ID":49090,"ELEMENT_SET_NO":999,"REV_AT_EPOCH":23721,"BSTAR":0.00046021358,"MEAN_MOTION_DOT":0.00000178,"MEAN_MOTION_DDOT":0},{"OBJECT_NAME":"ONEWEB-0302","OBJECT_ID":"2021-075S","EPOCH":"2026-07-07T10:19:11.637120","CLASSIFICATION_TYPE":"U","MEAN_MOTION":13.1244155,"ECCENTRICITY":0.00021516,"INCLINATION":87.8963,"RA_OF_ASC_NODE":346.642,"ARG_OF_PERICENTER":95.9543,"MEAN_ANOMALY":264.1831,"EPHEMERIS_TYPE":0,"NORAD_CAT_ID":49091,"ELEMENT_SET_NO":999,"REV_AT_EPOCH":23720,"BSTAR":0.0011951372,"MEAN_MOTION_DOT":0.00000443,"MEAN_MOTION_DDOT":0},{"OBJECT_NAME":"ONEWEB-0304","OBJECT_ID":"2021-075T","EPOCH":"2026-07-07T10:38:20.133312","CLASSIFICATION_TYPE":"U","MEAN_MOTION":13.17648198,"ECCENTRICITY":0.000196,"INCLINATION":87.9138,"RA_OF_ASC_NODE":1.84,"ARG_OF_PERICENTER":86.8731,"MEAN_ANOMALY":273.2625,"EPHEMERIS_TYPE":0,"NORAD_CAT_ID":49092,"ELEMENT_SET_NO":999,"REV_AT_EPOCH":23624,"BSTAR":-0.00054637351,"MEAN_MOTION_DOT":-0.00000199,"MEAN_MOTION_DDOT":0},{"OBJECT_NAME":"ONEWEB-0305","OBJECT_ID":"2021-075U","EPOCH":"2026-07-07T10:28:37.056864","CLASSIFICATION_TYPE":"U","MEAN_MOTION":13.17649927,"ECCENTRICITY":0.00020774,"INCLINATION":87.9145,"RA_OF_ASC_NODE":1.8271,"ARG_OF_PERICENTER":80.839,"MEAN_ANOMALY":279.2977,"EPHEMERIS_TYPE":0,"NORAD_CAT_ID":49093,"ELEMENT_SET_NO":999,"REV_AT_EPOCH":23627,"BSTAR":-0.00021938634,"MEAN_MOTION_DOT":-7.2e-7,"MEAN_MOTION_DDOT":0},{"OBJECT_NAME":"ONEWEB-0308","OBJECT_ID":"2021-075V","EPOCH":"2026-07-07T10:09:25.934976","CLASSIFICATION_TYPE":"U","MEAN_MOTION":13.12442601,"ECCENTRICITY":0.00018367,"INCLINATION":87.8962,"RA_OF_ASC_NODE":346.6352,"ARG_OF_PERICENTER":93.1142,"MEAN_ANOMALY":267.0197,"EPHEMERIS_TYPE":0,"NORAD_CAT_ID":49094,"ELEMENT_SET_NO":999,"REV_AT_EPOCH":23721,"BSTAR":0.00093252458,"MEAN_MOTION_DOT":0.00000348,"MEAN_MOTION_DDOT":0},{"OBJECT_NAME":"ONEWEB-0309","OBJECT_ID":"2021-075W","EPOCH":"2026-07-07T10:33:29.350656","CLASSIFICATION_TYPE":"U","MEAN_MOTION":13.17649469,"ECCENTRICITY":0.00023327,"INCLINATION":87.9138,"RA_OF_ASC_NODE":1.8332,"ARG_OF_PERICENTER":96.1075,"MEAN_ANOMALY":264.0322,"EPHEMERIS_TYPE":0,"NORAD_CAT_ID":49095,"ELEMENT_SET_NO":999,"REV_AT_EPOCH":23624,"BSTAR":-0.000061161039,"MEAN_MOTION_DOT":-1.1e-7,"MEAN_MOTION_DDOT":0},{"OBJECT_NAME":"ONEWEB-0310","OBJECT_ID":"2021-075X","EPOCH":"2026-07-07T10:31:23.522880","CLASSIFICATION_TYPE":"U","MEAN_MOTION":13.12442137,"ECCENTRICITY":0.00018417,"INCLINATION":87.8954,"RA_OF_ASC_NODE":346.652,"ARG_OF_PERICENTER":94.7083,"MEAN_ANOMALY":265.4256,"EPHEMERIS_TYPE":0,"NORAD_CAT_ID":49096,"ELEMENT_SET_NO":999,"REV_AT_EPOCH":23784,"BSTAR":0.0010320458,"MEAN_MOTION_DOT":0.00000384,"MEAN_MOTION_DDOT":0}]}
